NORAD_CAT_ID,OBJECT_NAME,OBJECT_TYPE,EPOCH,MEAN_MOTION,ECCENTRICITY,INCLINATION,RA_OF_ASC_NODE,ARG_OF_PERICENTER,MEAN_ANOMALY,BSTAR,MEAN_MOTION_DOT,MEAN_MOTION_DDOT,TLE_LINE0,TLE_LINE1,TLE_LINE2,SEMIMAJOR_AXIS,PERIOD,APOGEE,PERIGEE,DECAYED
56817.0,STARLINK-5982,PAYLOAD,2024-04-26 13:07:02,14.98330363,0.0002668,70.0009,264.3042,254.9986,105.0878,3.6403e-05,3.41e-06,0.0,0 STARLINK-5982,1 56817U 23078BC  24117.54655814  .00000341  00000-0  36403-4 0  9998,2 56817  70.0009 264.3042 0002668 254.9986 105.0878 14.98330363 50768,6950.192,96.107,573.911,570.202,0.0
56817.0,STARLINK-5982,PAYLOAD,2024-04-26 14:43:10,14.983304,0.0002666,70.0009,264.1359,254.8886,105.1978,3.6554e-05,3.43e-06,0.0,0 STARLINK-5982,1 56817U 23078BC  24117.61331810  .00000343  00000-0  36554-4 0  9992,2 56817  70.0009 264.1359 0002666 254.8886 105.1978 14.98330400 50510,6950.192,96.107,573.91,570.204,0.0
56817.0,STARLINK-5982,PAYLOAD,2024-04-26 19:31:34,14.98338538,0.0002786,70.0002,263.6305,263.6375,96.4467,0.00011621,1.294e-05,0.0,0 STARLINK-5982,1 56817U 23078BC  24117.81359126  .00001294  00000-0  11621-3 0  9997,2 56817  70.0002 263.6305 0002786 263.6375  96.4467 14.98338538 50540,6950.166,96.106,573.968,570.095,0.0
56817.0,STARLINK-5982,PAYLOAD,2024-04-27 13:09:03,14.98332483,0.000267,70.0003,261.7771,272.0613,88.024,2.0909e-05,1.57e-06,0.0,0 STARLINK-5982,1 56817U 23078BC  24118.54795607  .00000157  00000-0  20909-4 0  9993,2 56817  70.0003 261.7771 0002670 272.0613  88.0240 14.98332483 50918,6950.185,96.107,573.906,570.195,0.0
56817.0,STARLINK-5982,PAYLOAD,2024-04-27 19:33:35,14.98335056,0.000283,70.0002,261.104,272.0749,88.0086,3.9858e-05,3.83e-06,0.0,0 STARLINK-5982,1 56817U 23078BC  24118.81499293  .00000383  00000-0  39858-4 0  9999,2 56817  70.0002 261.1040 0002830 272.0749  88.0086 14.98335056 50690,6950.177,96.107,574.009,570.075,0.0
56817.0,STARLINK-5982,PAYLOAD,2024-04-28 13:11:05,14.9829834,0.0002097,70.0015,259.2536,259.0136,101.0788,0.00027453,3.181e-05,0.0,0 STARLINK-5982,1 56817U 23078BC  24119.54936946  .00003181  00000-0  27453-3 0  9997,2 56817  70.0015 259.2536 0002097 259.0136 101.0788 14.98298340 51063,6950.291,96.109,573.613,570.698,0.0
56817.0,STARLINK-5982,PAYLOAD,2024-04-28 19:35:37,14.98325543,0.0002905,70.0,258.5797,269.2049,90.8777,-0.00013792,-1.738e-05,0.0,0 STARLINK-5982,1 56817U 23078BC  24119.81640533 -.00001738  00000-0 -13792-3 0  9990,2 56817  70.0000 258.5797 0002905 269.2049  90.8777 14.98325543 51106,6950.207,96.107,574.091,570.053,0.0
56817.0,STARLINK-5982,PAYLOAD,2024-04-29 02:00:09,14.98335638,0.0002925,70.0004,257.9069,267.625,92.4574,-0.0002038,-2.524e-05,0.0,0 STARLINK-5982,1 56817U 23078BC  24120.08344069 -.00002524  00000-0 -20380-3 0  9991,2 56817  70.0004 257.9069 0002925 267.6250  92.4574 14.98335638 51146,6950.175,96.107,574.073,570.008,0.0
56817.0,STARLINK-5982,PAYLOAD,2024-04-29 14:49:13,14.98330662,0.0003022,69.9999,256.5594,272.9842,87.0971,4.0662e-05,3.92e-06,0.0,0 STARLINK-5982,1 56817U 23078BC  24120.61751770  .00000392  00000-0  40662-4 0  9996,2 56817  69.9999 256.5594 0003022 272.9842  87.0971 14.98330662 50961,6950.191,96.107,574.156,569.955,0.0
56817.0,STARLINK-5982,PAYLOAD,2024-04-29 19:37:37,14.98336086,0.0002997,69.9999,256.0546,272.2167,87.8649,6.014e-05,6.25e-06,0.0,0 STARLINK-5982,1 56817U 23078BC  24120.81779324  .00000625  00000-0  60140-4 0  9995,2 56817  69.9999 256.0546 0002997 272.2167  87.8649 14.98336086 50995,6950.174,96.107,574.122,569.956,0.0
56817.0,STARLINK-5982,PAYLOAD,2024-04-30 02:02:09,14.98335713,0.0002962,70.0001,255.3812,271.786,88.2959,1.4126e-05,7.6e-07,0.0,0 STARLINK-5982,1 56817U 23078BC  24121.08483402  .00000076  00000-0  14126-4 0  9997,2 56817  70.0001 255.3812 0002962 271.7860  88.2959 14.98335713 51295,6950.175,96.107,574.099,569.982,0.0
56817.0,STARLINK-5982,PAYLOAD,2024-04-30 14:51:14,14.98328039,0.0002964,70.0001,254.0349,269.6374,90.4446,0.00011382,1.265e-05,0.0,0 STARLINK-5982,1 56817U 23078BC  24121.61891662  .00001265  00000-0  11382-3 0  9998,2 56817  70.0001 254.0349 0002964 269.6374  90.4446 14.98328039 51114,6950.199,96.107,574.124,570.004,0.0
56817.0,STARLINK-5982,PAYLOAD,2024-04-30 18:03:30,14.98328501,0.0002968,70.0002,253.6983,269.746,90.3359,0.00011294,1.255e-05,0.0,0 STARLINK-5982,1 56817U 23078BC  24121.75243640  .00001255  00000-0  11294-3 0  9991,2 56817  70.0002 253.6983 0002968 269.7460  90.3359 14.98328501 51133,6950.198,96.107,574.125,570.0,0.0
56817.0,STARLINK-5982,PAYLOAD,2024-05-01 02:04:10,14.98331288,0.0002997,70.0002,252.8567,270.3957,89.6859,7.8306e-05,8.41e-06,0.0,0 STARLINK-5982,1 56817U 23078BC  24122.08623517  .00000841  00000-0  78306-4 0  9991,2 56817  70.0002 252.8567 0002997 270.3957  89.6859 14.98331288 51449,6950.189,96.107,574.137,569.971,0.0
56817.0,STARLINK-5982,PAYLOAD,2024-05-01 14:53:15,14.98331713,0.0002878,70.0007,251.5103,267.6775,92.4055,-4.2111e-05,-5.95e-06,0.0,0 STARLINK-5982,1 56817U 23078BC  24122.62031732 -.00000595  00000-0 -42111-4 0  9996,2 56817  70.0007 251.5103 0002878 267.6775  92.4055 14.98331713 51264,6950.188,96.107,574.053,570.052,0.0
56817.0,STARLINK-5982,PAYLOAD,2024-05-01 18:05:31,14.98333542,0.0002832,70.0008,251.1738,267.6007,92.4828,-1.8158e-05,-3.1e-06,0.0,0 STARLINK-5982,1 56817U 23078BC  24122.75383528 -.00000310  00000-0 -18158-4 0  9992,2 56817  70.0008 251.1738 0002832 267.6007  92.4828 14.98333542 51285,6950.182,96.107,574.015,570.079,0.0
56817.0,STARLINK-5982,PAYLOAD,2024-05-02 02:06:11,14.9833427,0.0002884,70.001,250.3317,270.6659,89.4169,-0.00010787,-1.38e-05,0.0,0 STARLINK-5982,1 56817U 23078BC  24123.08763628 -.00001380  00000-0 -10787-3 0  9999,2 56817  70.0010 250.3317 0002884 270.6659  89.4169 14.98334270 51593,6950.18,96.107,574.049,570.04,0.0
56817.0,STARLINK-5982,PAYLOAD,2024-05-02 14:55:16,14.98329798,0.0002735,70.0009,248.9843,264.5567,95.528,1.6647e-05,1.06e-06,0.0,0 STARLINK-5982,1 56817U 23078BC  24123.62171525  .00000106  00000-0  16647-4 0  9993,2 56817  70.0009 248.9843 0002735 264.5567  95.5280 14.98329798 51415,6950.194,96.107,573.959,570.158,0.0
56817.0,STARLINK-5982,PAYLOAD,2024-05-03 02:08:12,14.9833854,0.0002944,70.0005,247.8058,269.3289,90.7533,-4.5977e-07,-9.8e-07,0.0,0 STARLINK-5982,1 56817U 23078BC  24124.08902897 -.00000098  00000-0 -45977-6 0  9990,2 56817  70.0005 247.8058 0002944 269.3289  90.7533 14.98338540 51742,6950.166,96.106,574.078,569.985,0.0
56817.0,STARLINK-5982,PAYLOAD,2024-05-03 14:57:15,14.98340319,0.0002973,69.9997,246.4602,270.4782,89.6037,0.00013464,1.514e-05,0.0,0 STARLINK-5982,1 56817U 23078BC  24124.62310121  .00001514  00000-0  13464-3 0  9998,2 56817  69.9997 246.4602 0002973 270.4782  89.6037 14.98340319 51565,6950.161,96.106,574.092,569.96,0.0
56817.0,STARLINK-5982,PAYLOAD,2024-05-03 18:09:31,14.98342489,0.0002952,69.9997,246.1234,270.2603,89.8217,0.00015799,1.793e-05,0.0,0 STARLINK-5982,1 56817U 23078BC  24124.75661819  .00001793  00000-0  15799-3 0  9997,2 56817  69.9997 246.1234 0002952 270.2603  89.8217 14.98342489 51843,6950.154,96.106,574.071,569.968,0.0
56817.0,STARLINK-5982,PAYLOAD,2024-05-04 11:47:02,14.98317518,0.0003165,69.9997,244.2719,270.9232,89.1565,-9.4534e-05,-1.22e-05,0.0,0 STARLINK-5982,1 56817U 23078BC  24125.49100175 -.00001220  00000-0 -94534-4 0  9994,2 56817  69.9997 244.2719 0003165 270.9232  89.1565 14.98317518 51958,6950.231,96.108,574.296,569.897,0.0
56817.0,STARLINK-5982,PAYLOAD,2024-05-05 00:36:06,14.98329457,0.0003117,69.9997,242.9246,270.9198,89.1604,-8.1453e-05,-1.065e-05,0.0,0 STARLINK-5982,1 56817U 23078BC  24126.02507542 -.00001065  00000-0 -81453-4 0  9996,2 56817  69.9997 242.9246 0003117 270.9198  89.1604 14.98329457 52035,6950.195,96.107,574.226,569.893,0.0
56817.0,STARLINK-5982,PAYLOAD,2024-05-05 11:49:02,14.98333893,0.0003004,69.9998,241.7466,270.8738,89.2077,-6.9576e-05,-9.23e-06,0.0,0 STARLINK-5982,1 56817U 23078BC  24126.49239248 -.00000923  00000-0 -69576-4 0  9996,2 56817  69.9998 241.7466 0003004 270.8738  89.2077 14.98333893 51843,6950.181,96.107,574.134,569.958,0.0
56817.0,STARLINK-5982,PAYLOAD,2024-05-05 16:37:26,14.98339761,0.0002959,69.9999,241.2422,269.488,90.594,-2.2302e-05,-3.59e-06,0.0,0 STARLINK-5982,1 56817U 23078BC  24126.69266661 -.00000359  00000-0 -22302-4 0  9996,2 56817  69.9999 241.2422 0002959 269.4880  90.5940 14.98339761 52138,6950.163,96.106,574.084,569.971,0.0
56817.0,STARLINK-5982,PAYLOAD,2024-05-06 13:27:11,14.98329281,0.0002847,70.0001,239.0547,266.6549,93.4284,0.00016567,1.884e-05,0.0,0 STARLINK-5982,1 56817U 23078BC  24127.56054721  .00001884  00000-0  16567-3 0  9992,2 56817  70.0001 239.0547 0002847 266.6549  93.4284 14.98329281 52268,6950.195,96.107,574.039,570.081,0.0
56817.0,STARLINK-5982,PAYLOAD,2024-05-06 15:03:19,14.98330665,0.0002818,70.0,238.8862,267.5011,92.5825,0.00017732,2.023e-05,0.0,0 STARLINK-5982,1 56817U 23078BC  24127.62730603  .00002023  00000-0  17732-3 0  9990,2 56817  70.0000 238.8862 0002818 267.5011  92.5825 14.98330665 52018,6950.191,96.107,574.014,570.097,0.0
56817.0,STARLINK-5982,PAYLOAD,2024-05-06 16:39:27,14.98332699,0.0002803,70.0001,238.7179,268.0879,91.9959,0.00019565,2.242e-05,0.0,0 STARLINK-5982,1 56817U 23078BC  24127.69406419  .00002242  00000-0  19565-3 0  9991,2 56817  70.0001 238.7179 0002803 268.0879  91.9959 14.98332699 52022,6950.185,96.107,573.998,570.101,0.0
56817.0,STARLINK-5982,PAYLOAD,2024-05-07 13:29:12,14.98329248,0.0002819,70.0004,236.5303,269.5356,90.548,-6.6896e-05,-8.91e-06,0.0,0 STARLINK-5982,1 56817U 23078BC  24128.56195357 -.00000891  00000-0 -66896-4 0  9994,2 56817  70.0004 236.5303 0002819 269.5356  90.5480 14.98329248 52416,6950.195,96.107,574.019,570.101,0.0
56817.0,STARLINK-5982,PAYLOAD,2024-05-07 16:41:28,14.98328763,0.000295,70.0003,236.1936,269.171,90.9111,-6.9272e-05,-9.19e-06,0.0,0 STARLINK-5982,1 56817U 23078BC  24128.69547390 -.00000919  00000-0 -69272-4 0  9998,2 56817  70.0003 236.1936 0002950 269.1710  90.9111 14.98328763 52178,6950.197,96.107,574.112,570.011,0.0
